start=new Date('2022-12-26T00:00:00.000Z').valueOf();
sats=[{"COUNTRY_CODE":"US","RA_OF_ASC_NODE":"65.4360","GP_ID":"221455177","MEAN_ELEMENT_THEORY":"SGP4","MEAN_MOTION_DDOT":"0.0000000000000","ECCENTRICITY":"0.00019620","REF_FRAME":"TEME","MEAN_MOTION_DOT":"-0.00000746","INCLINATION":"53.2205","RCS_SIZE":"LARGE","PERIAPSIS":"538.406","CLASSIFICATION_TYPE":"U","MEAN_MOTION":"15.08834027","ARG_OF_PERICENTER":"37.9021","OBJECT_NAME":"STARLINK-5131","TLE_LINE1":"1 53996U 22125AJ  22359.88233963 -.00000746  00000-0 -28778-4 0  9992","TIME_SYSTEM":"UTC","APOAPSIS":"541.121","BSTAR":"-0.00002877800000","MEAN_ANOMALY":"322.2109","EPHEMERIS_TYPE":"0","DECAY_DATE":null,"SITE":"AFWTR","PERIOD":"95.438","OBJECT_ID":"2022-125AJ","ELEMENT_SET_NO":"999","EPOCH":"2022-12-25T21:10:34.144032","TLE_LINE2":"2 53996  53.2205  65.4360 0001962  37.9021 322.2109 15.08834027 12869","NORAD_CAT_ID":"53996","REV_AT_EPOCH":"1286","CENTER_NAME":"EARTH","OBJECT_TYPE":"PAYLOAD","FILE":"3722315","SEMIMAJOR_AXIS":"6917.899","LAUNCH_DATE":"2022-10-05"},{"COUNTRY_CODE":"US","RA_OF_ASC_NODE":"55.6030","GP_ID":"221454971","MEAN_ELEMENT_THEORY":"SGP4","ECCENTRICITY":"0.00015900","MEAN_MOTION_DDOT":"0.0000000000000","REF_FRAME":"TEME","MEAN_MOTION_DOT":"-0.00916531","PERIAPSIS":"497.910","INCLINATION":"53.2174","RCS_SIZE":"LARGE","CLASSIFICATION_TYPE":"U","MEAN_MOTION":"15.22267887","ARG_OF_PERICENTER":"43.6796","OBJECT_NAME":"STARLINK-5130","APOAPSIS":"500.097","TIME_SYSTEM":"UTC","BSTAR":"-0.04241200000000","TLE_LINE1":"1 53997U 22125AK  22360.00001157 -.00916531  00000-0 -42412-1 0  9993","MEAN_ANOMALY":"244.2591","EPHEMERIS_TYPE":"0","ELEMENT_SET_NO":"999","SITE":"AFWTR","DECAY_DATE":null,"PERIOD":"94.596","OBJECT_ID":"2022-125AK","EPOCH":"2022-12-26T00:00:00.999648","NORAD_CAT_ID":"53997","TLE_LINE2":"2 53997  53.2174  55.6030 0001590  43.6796 244.2591 15.22267887  1305","REV_AT_EPOCH":"130","CENTER_NAME":"EARTH","OBJECT_TYPE":"PAYLOAD","FILE":"3722315","SEMIMAJOR_AXIS":"6877.139","LAUNCH_DATE":"2022-10-05"},{"OBJECT_NAME":"STARLINK-5128","TLE_LINE1":"1 53998U 22125AL  22359.47848450  .00000478  00000-0  48165-4 0  9994","APOAPSIS":"540.838","BSTAR":"0.00004816500000","TIME_SYSTEM":"UTC","ARG_OF_PERICENTER":"53.2441","MEAN_ANOMALY":"306.8692","EPHEMERIS_TYPE":"0","TLE_LINE2":"2 53998  53.2198  67.1737 0001536  53.2441 306.8692 15.08830031 12803","NORAD_CAT_ID":"53998","REV_AT_EPOCH":"1280","SITE":"AFWTR","DECAY_DATE":null,"OBJECT_ID":"2022-125AL","PERIOD":"95.438","ELEMENT_SET_NO":"999","EPOCH":"2022-12-25T11:29:01.060800","FILE":"3722051","SEMIMAJOR_AXIS":"6917.911","LAUNCH_DATE":"2022-10-05","CENTER_NAME":"EARTH","OBJECT_TYPE":"PAYLOAD","GP_ID":"221421834","COUNTRY_CODE":"US","RA_OF_ASC_NODE":"67.1737","REF_FRAME":"TEME","MEAN_ELEMENT_THEORY":"SGP4","MEAN_MOTION_DDOT":"0.0000000000000","ECCENTRICITY":"0.00015360","CLASSIFICATION_TYPE":"U","MEAN_MOTION_DOT":"0.00000478","INCLINATION":"53.2198","RCS_SIZE":"LARGE","PERIAPSIS":"538.713","MEAN_MOTION":"15.08830031"},{"INCLINATION":"53.2184","RCS_SIZE":"LARGE","PERIAPSIS":"538.805","MEAN_MOTION_DOT":"0.00000041","CLASSIFICATION_TYPE":"U","MEAN_MOTION":"15.08838584","RA_OF_ASC_NODE":"65.4808","COUNTRY_CODE":"US","GP_ID":"221454558","MEAN_MOTION_DDOT":"0.0000000000000","ECCENTRICITY":"0.00013650","MEAN_ELEMENT_THEORY":"SGP4","REF_FRAME":"TEME","EPOCH":"2022-12-25T21:21:10.383264","DECAY_DATE":null,"SITE":"AFWTR","PERIOD":"95.438","OBJECT_ID":"2022-125AM","ELEMENT_SET_NO":"999","REV_AT_EPOCH":"1286","TLE_LINE2":"2 53999  53.2184  65.4808 0001365  52.7251 307.3866 15.08838584 12868","NORAD_CAT_ID":"53999","OBJECT_TYPE":"PAYLOAD","CENTER_NAME":"EARTH","SEMIMAJOR_AXIS":"6917.885","LAUNCH_DATE":"2022-10-05","FILE":"3722315","ARG_OF_PERICENTER":"52.7251","TLE_LINE1":"1 53999U 22125AM  22359.88970351  .00000041  00000-0  20673-4 0  9996","APOAPSIS":"540.694","TIME_SYSTEM":"UTC","BSTAR":"0.00002067300000","OBJECT_NAME":"STARLINK-5079","EPHEMERIS_TYPE":"0","MEAN_ANOMALY":"307.3866"},{"EPHEMERIS_TYPE":"0","MEAN_ANOMALY":"253.8230","ARG_OF_PERICENTER":"47.9518","BSTAR":"-0.04209000000000","APOAPSIS":"499.297","TIME_SYSTEM":"UTC","TLE_LINE1":"1 54000U 22125AN  22360.00001157 -.00916282  00000-0 -42090-1 0  9994","OBJECT_NAME":"STARLINK-5088","OBJECT_TYPE":"PAYLOAD","CENTER_NAME":"EARTH","SEMIMAJOR_AXIS":"6876.394","LAUNCH_DATE":"2022-10-05","FILE":"3722315","EPOCH":"2022-12-26T00:00:00.999648","ELEMENT_SET_NO":"999","DECAY_DATE":null,"SITE":"AFWTR","PERIOD":"94.580","OBJECT_ID":"2022-125AN","REV_AT_EPOCH":"130","NORAD_CAT_ID":"54000","TLE_LINE2":"2 54000  53.2174  55.5758 0001509  47.9518 253.8230 15.22515144  1304","MEAN_MOTION_DDOT":"0.0000000000000","ECCENTRICITY":"0.00015090","MEAN_ELEMENT_THEORY":"SGP4","REF_FRAME":"TEME","RA_OF_ASC_NODE":"55.5758","COUNTRY_CODE":"US","GP_ID":"221454765","MEAN_MOTION":"15.22515144","PERIAPSIS":"497.221","RCS_SIZE":"LARGE","INCLINATION":"53.2174","MEAN_MOTION_DOT":"-0.00916282","CLASSIFICATION_TYPE":"U"},{"CENTER_NAME":"EARTH","OBJECT_TYPE":"PAYLOAD","FILE":"3722051","SEMIMAJOR_AXIS":"6917.900","LAUNCH_DATE":"2022-10-05","ELEMENT_SET_NO":"999","DECAY_DATE":null,"SITE":"AFWTR","PERIOD":"95.438","OBJECT_ID":"2022-125AP","EPOCH":"2022-12-25T11:27:37.945728","NORAD_CAT_ID":"54001","TLE_LINE2":"2 54001  53.2188  67.1707 0001723  46.7358 313.3777 15.08833663 12808","REV_AT_EPOCH":"1280","MEAN_ANOMALY":"313.3777","EPHEMERIS_TYPE":"0","ARG_OF_PERICENTER":"46.7358","OBJECT_NAME":"STARLINK-5105","BSTAR":"-0.00001993400000","APOAPSIS":"540.957","TIME_SYSTEM":"UTC","TLE_LINE1":"1 54001U 22125AP  22359.47752252 -.00000605  00000-0 -19934-4 0  9990","MEAN_MOTION":"15.08833663","MEAN_MOTION_DOT":"-0.00000605","PERIAPSIS":"538.573","INCLINATION":"53.2188","RCS_SIZE":"LARGE","CLASSIFICATION_TYPE":"U","MEAN_ELEMENT_THEORY":"SGP4","MEAN_MOTION_DDOT":"0.0000000000000","ECCENTRICITY":"0.00017230","REF_FRAME":"TEME","COUNTRY_CODE":"US","RA_OF_ASC_NODE":"67.1707","GP_ID":"221421628"},{"GP_ID":"221453938","RA_OF_ASC_NODE":"55.2893","COUNTRY_CODE":"US","REF_FRAME":"TEME","ECCENTRICITY":"0.00012140","MEAN_MOTION_DDOT":"0.0000000000000","MEAN_ELEMENT_THEORY":"SGP4","CLASSIFICATION_TYPE":"U","PERIAPSIS":"488.342","RCS_SIZE":"LARGE","INCLINATION":"53.2174","MEAN_MOTION_DOT":"-0.00919421","MEAN_MOTION":"15.25536793","APOAPSIS":"490.010","BSTAR":"-0.03858800000000","TIME_SYSTEM":"UTC","TLE_LINE1":"1 54002U 22125AQ  22360.00001157 -.00919421  00000-0 -38588-1 0  9991","OBJECT_NAME":"STARLINK-5109","ARG_OF_PERICENTER":"85.2962","EPHEMERIS_TYPE":"0","MEAN_ANOMALY":"12.1280","REV_AT_EPOCH":"130","NORAD_CAT_ID":"54002","TLE_LINE2":"2 54002  53.2174  55.2893 0001214  85.2962  12.1280 15.25536793  1301","EPOCH":"2022-12-26T00:00:00.999648","ELEMENT_SET_NO":"999","SITE":"AFWTR","DECAY_DATE":null,"PERIOD":"94.393","OBJECT_ID":"2022-125AQ","SEMIMAJOR_AXIS":"6867.311","LAUNCH_DATE":"2022-10-05","FILE":"3722315","OBJECT_TYPE":"PAYLOAD","CENTER_NAME":"EARTH"},{"MEAN_MOTION":"15.08835401","MEAN_MOTION_DOT":"0.00000342","PERIAPSIS":"538.179","RCS_SIZE":"LARGE","INCLINATION":"53.2195","CLASSIFICATION_TYPE":"U","MEAN_ELEMENT_THEORY":"SGP4","ECCENTRICITY":"0.00022850","MEAN_MOTION_DDOT":"0.0000000000000","REF_FRAME":"TEME","COUNTRY_CODE":"US","RA_OF_ASC_NODE":"65.4113","GP_ID":"221454145","CENTER_NAME":"EARTH","OBJECT_TYPE":"PAYLOAD","FILE":"3722315","LAUNCH_DATE":"2022-10-05","SEMIMAJOR_AXIS":"6917.894","ELEMENT_SET_NO":"999","OBJECT_ID":"2022-125AR","DECAY_DATE":null,"SITE":"AFWTR","PERIOD":"95.438","EPOCH":"2022-12-25T21:05:15.298656","NORAD_CAT_ID":"54003","TLE_LINE2":"2 54003  53.2195  65.4113 0002285  31.2022 328.9105 15.08835401 12866","REV_AT_EPOCH":"1286","MEAN_ANOMALY":"328.9105","EPHEMERIS_TYPE":"0","ARG_OF_PERICENTER":"31.2022","OBJECT_NAME":"STARLINK-5114","APOAPSIS":"541.340","BSTAR":"0.00003959200000","TIME_SYSTEM":"UTC","TLE_LINE1":"1 54003U 22125AR  22359.87864929  .00000342  00000-0  39592-4 0  9999"},{"MEAN_MOTION":"15.08833962","CLASSIFICATION_TYPE":"U","MEAN_MOTION_DOT":"-0.00000399","PERIAPSIS":"538.535","INCLINATION":"53.2187","RCS_SIZE":"LARGE","REF_FRAME":"TEME","MEAN_ELEMENT_THEORY":"SGP4","ECCENTRICITY":"0.00017770","MEAN_MOTION_DDOT":"0.0000000000000","GP_ID":"221455178","COUNTRY_CODE":"US","RA_OF_ASC_NODE":"66.2316","FILE":"3722315","LAUNCH_DATE":"2022-10-05","SEMIMAJOR_AXIS":"6917.899","CENTER_NAME":"EARTH","OBJECT_TYPE":"PAYLOAD","NORAD_CAT_ID":"54004","TLE_LINE2":"2 54004  53.2187  66.2316 0001777  42.6046 317.5084 15.08833962 12836","REV_AT_EPOCH":"1283","ELEMENT_SET_NO":"999","DECAY_DATE":null,"SITE":"AFWTR","PERIOD":"95.438","OBJECT_ID":"2022-125AS","EPOCH":"2022-12-25T16:03:11.054016","MEAN_ANOMALY":"317.5084","EPHEMERIS_TYPE":"0","OBJECT_NAME":"STARLINK-5129","BSTAR":"-0.00000695860000","APOAPSIS":"540.993","TIME_SYSTEM":"UTC","TLE_LINE1":"1 54004U 22125AS  22359.66887794 -.00000399  00000-0 -69586-5 0  9993","ARG_OF_PERICENTER":"42.6046"},{"LAUNCH_DATE":"2022-10-05","SEMIMAJOR_AXIS":"6917.893","FILE":"3722315","OBJECT_TYPE":"PAYLOAD","CENTER_NAME":"EARTH","REV_AT_EPOCH":"1283","NORAD_CAT_ID":"54005","TLE_LINE2":"2 54005  53.2184  66.2561 0001413  68.7815 291.3329 15.08835714 12834","EPOCH":"2022-12-25T16:08:29.074272","ELEMENT_SET_NO":"999","SITE":"AFWTR","DECAY_DATE":null,"PERIOD":"95.438","OBJECT_ID":"2022-125AT","EPHEMERIS_TYPE":"0","MEAN_ANOMALY":"291.3329","TIME_SYSTEM":"UTC","APOAPSIS":"540.736","BSTAR":"-0.00008438300000","TLE_LINE1":"1 54005U 22125AT  22359.67255873 -.00001630  00000-0 -84383-4 0  9992","OBJECT_NAME":"STARLINK-5135","ARG_OF_PERICENTER":"68.7815","MEAN_MOTION":"15.08835714","CLASSIFICATION_TYPE":"U","PERIAPSIS":"538.781","INCLINATION":"53.2184","RCS_SIZE":"LARGE","MEAN_MOTION_DOT":"-0.00001630","REF_FRAME":"TEME","MEAN_MOTION_DDOT":"0.0000000000000","ECCENTRICITY":"0.00014130","MEAN_ELEMENT_THEORY":"SGP4","GP_ID":"221454972","RA_OF_ASC_NODE":"66.2561","COUNTRY_CODE":"US"}];
